{
  "norad_id": 55936,
  "name": "STARLINK-5882",
  "history": [
    {
      "epoch": "2026-03-28T18:12:55.499616Z",
      "apogee_km": 574.343265828812,
      "perigee_km": 569.7792096500534,
      "latitude_deg": 2.0146671171529846e-05,
      "longitude_deg": 116.80224244506536,
      "height_km": 574.6536167769596,
      "semi_major_axis_km": 6950.198237739432,
      "eccentricity": 0.00032834,
      "inclination_deg": 70.0005,
      "raan_deg": 216.2083,
      "arg_perigee_deg": 265.8637,
      "mean_anomaly_deg": 94.2147,
      "mean_motion_rev_day": 14.98328271
    },
    {
      "epoch": "2026-03-29T08:38:07.476000Z",
      "apogee_km": 574.3338307300883,
      "perigee_km": 569.7267038519458,
      "latitude_deg": 7.495065798923563e-05,
      "longitude_deg": -101.60464731588868,
      "height_km": 574.6207461438324,
      "semi_major_axis_km": 6950.167267291016,
      "eccentricity": 0.00033144,
      "inclination_deg": 70.0005,
      "raan_deg": 214.6935,
      "arg_perigee_deg": 265.9507,
      "mean_anomaly_deg": 94.1274,
      "mean_motion_rev_day": 14.98338286
    },
    {
      "epoch": "2026-03-30T15:04:40.381824Z",
      "apogee_km": 573.5415163512207,
      "perigee_km": 570.4234147541947,
      "latitude_deg": 6.9269038281154e-05,
      "longitude_deg": 157.3108161010211,
      "height_km": 574.9364904160376,
      "semi_major_axis_km": 6950.119465552707,
      "eccentricity": 0.00022432,
      "inclination_deg": 70.0021,
      "raan_deg": 211.4963,
      "arg_perigee_deg": 250.2333,
      "mean_anomaly_deg": 109.8585,
      "mean_motion_rev_day": 14.98353744
    },
    {
      "epoch": "2026-03-30T18:16:56.524512Z",
      "apogee_km": 573.6460123449606,
      "perigee_km": 570.3214915844665,
      "latitude_deg": 6.170278388188226e-05,
      "longitude_deg": 108.77554883254994,
      "height_km": 574.9213027333184,
      "semi_major_axis_km": 6950.120751964713,
      "eccentricity": 0.00023917,
      "inclination_deg": 70.0016,
      "raan_deg": 211.1599,
      "arg_perigee_deg": 252.1097,
      "mean_anomaly_deg": 107.9802,
      "mean_motion_rev_day": 14.98353328
    },
    {
      "epoch": "2026-03-31T18:18:59.781888Z",
      "apogee_km": 574.4463511279073,
      "perigee_km": 569.7438240974298,
      "latitude_deg": 1.4446382741775123e-05,
      "longitude_deg": 104.74860958729076,
      "height_km": 574.4003475558144,
      "semi_major_axis_km": 6950.232087612669,
      "eccentricity": 0.0003383,
      "inclination_deg": 70.0003,
      "raan_deg": 208.6336,
      "arg_perigee_deg": 272.9876,
      "mean_anomaly_deg": 87.0896,
      "mean_motion_rev_day": 14.98317325
    },
    {
      "epoch": "2026-04-01T10:20:19.044672Z",
      "apogee_km": 574.2368020513077,
      "perigee_km": 569.8609650190338,
      "latitude_deg": -3.502676658036508e-05,
      "longitude_deg": -137.92196993216928,
      "height_km": 574.4266177403608,
      "semi_major_axis_km": 6950.18588353517,
      "eccentricity": 0.0003148,
      "inclination_deg": 70.0007,
      "raan_deg": 206.9513,
      "arg_perigee_deg": 271.3072,
      "mean_anomaly_deg": 88.7726,
      "mean_motion_rev_day": 14.98332266
    },
    {
      "epoch": "2026-04-02T13:34:35.153760Z",
      "apogee_km": 574.4915279282623,
      "perigee_km": 569.5724763153203,
      "latitude_deg": -5.248463963534824e-05,
      "longitude_deg": 169.53068661583325,
      "height_km": 574.2799311738172,
      "semi_major_axis_km": 6950.169002121791,
      "eccentricity": 0.00035388,
      "inclination_deg": 70.0006,
      "raan_deg": 204.0897,
      "arg_perigee_deg": 274.1983,
      "mean_anomaly_deg": 85.8771,
      "mean_motion_rev_day": 14.98337725
    },
    {
      "epoch": "2026-04-03T16:48:52.491456Z",
      "apogee_km": 574.2513079819873,
      "perigee_km": 569.7990340952201,
      "latitude_deg": -2.7976272715797405e-05,
      "longitude_deg": 116.97752429245688,
      "height_km": 574.3588800987001,
      "semi_major_axis_km": 6950.162171038603,
      "eccentricity": 0.0003203,
      "inclination_deg": 70.0008,
      "raan_deg": 201.2274,
      "arg_perigee_deg": 272.42,
      "mean_anomaly_deg": 87.6592,
      "mean_motion_rev_day": 14.98339934
    },
    {
      "epoch": "2026-04-04T16:50:52.940832Z",
      "apogee_km": 574.2706448098379,
      "perigee_km": 569.7752813457182,
      "latitude_deg": 5.102106570740591e-05,
      "longitude_deg": 112.964260742307,
      "height_km": 574.4244979083346,
      "semi_major_axis_km": 6950.159963077777,
      "eccentricity": 0.0003234,
      "inclination_deg": 70.0012,
      "raan_deg": 198.703,
      "arg_perigee_deg": 270.6688,
      "mean_anomaly_deg": 89.4101,
      "mean_motion_rev_day": 14.98340648
    },
    {
      "epoch": "2026-04-05T13:40:38.408736Z",
      "apogee_km": 574.2798606111273,
      "perigee_km": 569.8607797927962,
      "latitude_deg": 2.5363094215492973e-05,
      "longitude_deg": 157.4820717345093,
      "height_km": 574.5085840384425,
      "semi_major_axis_km": 6950.207320201962,
      "eccentricity": 0.00031791,
      "inclination_deg": 70.0013,
      "raan_deg": 196.5157,
      "arg_perigee_deg": 269.7265,
      "mean_anomaly_deg": 90.353,
      "mean_motion_rev_day": 14.98325334
    },
    {
      "epoch": "2026-04-05T16:52:54.617088Z",
      "apogee_km": 574.293354245422,
      "perigee_km": 569.8507806095222,
      "latitude_deg": 1.9855999385907697e-05,
      "longitude_deg": 108.94633046810017,
      "height_km": 574.5041724888691,
      "semi_major_axis_km": 6950.209067427471,
      "eccentricity": 0.0003196,
      "inclination_deg": 70.0013,
      "raan_deg": 196.1791,
      "arg_perigee_deg": 269.8872,
      "mean_anomaly_deg": 90.1921,
      "mean_motion_rev_day": 14.98324769
    },
    {
      "epoch": "2026-04-05T23:17:26.644128Z",
      "apogee_km": 574.2899142519764,
      "perigee_km": 569.8342806145947,
      "latitude_deg": -6.744221248146596e-05,
      "longitude_deg": 11.876548369157403,
      "height_km": 574.4875733461421,
      "semi_major_axis_km": 6950.199097433286,
      "eccentricity": 0.00032054,
      "inclination_deg": 70.0014,
      "raan_deg": 195.506,
      "arg_perigee_deg": 270.0587,
      "mean_anomaly_deg": 90.0204,
      "mean_motion_rev_day": 14.98327993
    },
    {
      "epoch": "2026-04-07T12:08:31.672896Z",
      "apogee_km": 574.3756756241237,
      "perigee_km": 569.7343374021748,
      "latitude_deg": 5.5468522097652503e-05,
      "longitude_deg": 173.72080254783324,
      "height_km": 574.4610908350537,
      "semi_major_axis_km": 6950.192006513149,
      "eccentricity": 0.0003339,
      "inclination_deg": 70.0009,
      "raan_deg": 191.6346,
      "arg_perigee_deg": 270.5371,
      "mean_anomaly_deg": 89.5406,
      "mean_motion_rev_day": 14.98330286
    }
  ]
}